NORAD_CAT_ID,OBJECT_NAME,OBJECT_TYPE,EPOCH,MEAN_MOTION,ECCENTRICITY,INCLINATION,RA_OF_ASC_NODE,ARG_OF_PERICENTER,MEAN_ANOMALY,BSTAR,MEAN_MOTION_DOT,MEAN_MOTION_DDOT,TLE_LINE0,TLE_LINE1,TLE_LINE2,SEMIMAJOR_AXIS,PERIOD,APOGEE,PERIGEE,DECAYED
53618.0,STARLINK-4604,PAYLOAD,2022-10-24 22:00:00,15.33796811,0.0001943999999999,53.2175,4.6295,32.4262,75.4619,-0.0349779999999999,-0.01064354,0.0,0 STARLINK-4604,1 53618U 22104AG  22297.91667824 -.01064354  00000-0 -34978-1 0  9994,2 53618  53.2175   4.6295 0001944  32.4262  75.4619 15.33796811  1301,6842.634,93.885,465.829,463.168,0.0
53618.0,STARLINK-4604,PAYLOAD,2022-10-25 14:00:01,15.32288231,0.0001710999999999,53.2174,1.5258,44.56,144.6522,-0.037186,-0.01077444,0.0,0 STARLINK-4604,1 53618U 22104AG  22298.58334491 -.01077444  00000-0 -37186-1 0  9997,2 53618  53.2174   1.5258 0001711  44.5600 144.6522 15.32288231  1300,6847.124,93.977,470.161,467.818,0.0
53618.0,STARLINK-4604,PAYLOAD,2022-10-25 22:00:01,15.31520645,0.0001728,53.2175,359.973,42.5452,186.0331,-0.037692,-0.01066951,0.0,0 STARLINK-4604,1 53618U 22104AG  22298.91668981 -.01066951  00000-0 -37692-1 0  9991,2 53618  53.2175 359.9730 0001728  42.5452 186.0331 15.31520645  1302,6849.4119999999975,94.024,472.46,470.093,0.0
53618.0,STARLINK-4604,PAYLOAD,2022-10-26 14:00:01,15.30000393,0.0001861,53.2175,356.8795,33.5869,270.7818,-0.039415,-0.01064202,0.0,0 STARLINK-4604,1 53618U 22104AG  22299.58334491 -.01064202  00000-0 -39415-1 0  9993,2 53618  53.2175 356.8795 0001861  33.5869 270.7818 15.30000393  1302,6853.948,94.118,477.089,474.538,0.0
53618.0,STARLINK-4604,PAYLOAD,2022-10-26 22:00:00,15.29242714,0.0001449,53.2175,355.3329,45.0939,295.8338,-0.040507,-0.0106784,0.0,0 STARLINK-4604,1 53618U 22104AG  22299.91667824 -.01067840  00000-0 -40507-1 0  9994,2 53618  53.2175 355.3329 0001449  45.0939 295.8338 15.29242714  1305,6856.212,94.164,479.07,477.083,0.0
53618.0,STARLINK-4604,PAYLOAD,2022-10-27 14:00:01,15.27720805,0.0001546,53.2174,352.2501,43.636,7.7345,-0.042231,-0.01062733,0.0,0 STARLINK-4604,1 53618U 22104AG  22300.58335648 -.01062733  00000-0 -42231-1 0  9998,2 53618  53.2174 352.2501 0001546  43.6360   7.7345 15.27720805  9498,6860.765,94.258,483.69,481.569,0.0
53618.0,STARLINK-4604,PAYLOAD,2022-10-27 22:00:00,15.26962164,0.0001685,53.2175,350.7088,38.8379,46.2903,-0.0432899999999999,-0.01064266,0.0,0 STARLINK-4604,1 53618U 22104AG  22300.91667824 -.01064266  00000-0 -43290-1 0  9998,2 53618  53.2175 350.7088 0001685  38.8379  46.2903 15.26962164  1307,6863.0369999999975,94.305,486.0580000000001,483.745,0.0
53618.0,STARLINK-4604,PAYLOAD,2022-10-28 14:00:01,15.2544367,0.0001699,53.217,347.6376,47.745,102.3475,-0.045307,-0.01063652,0.0,0 STARLINK-4604,1 53618U 22104AG  22301.58335648 -.01063652  00000-0 -45307-1 0  9997,2 53618  53.2170 347.6376 0001699  47.7450 102.3475 15.25443670  1304,6867.590999999999,94.399,490.622,488.289,0.0
53618.0,STARLINK-4604,PAYLOAD,2022-10-28 22:00:01,15.24687724,0.0001819,53.2171,346.1016,41.3814,139.7932,-0.04661,-0.01069083,0.0,0 STARLINK-4604,1 53618U 22104AG  22301.91668981 -.01069083  00000-0 -46610-1 0  9995,2 53618  53.2171 346.1016 0001819  41.3814 139.7932 15.24687724  1309,6869.86,94.446,492.975,490.476,0.0
53618.0,STARLINK-4604,PAYLOAD,2022-10-29 12:00:00,15.23354532,0.0001804,53.2175,343.4221,43.9984,99.3125,-0.048241,-0.01063582,0.0,0 STARLINK-4604,1 53618U 22104AG  22302.50001157 -.01063582  00000-0 -48241-1 0  9997,2 53618  53.2175 343.4221 0001804  43.9984  99.3125 15.23354532  1303,6873.868,94.528,496.973,494.49300000000005,0.0
53618.0,STARLINK-4604,PAYLOAD,2022-10-29 22:00:01,15.22403888,0.0001593,53.2175,341.5089,46.6067,222.3423,-0.049502,-0.01061069,0.0,0 STARLINK-4604,1 53618U 22104AG  22302.91668981 -.01061069  00000-0 -49502-1 0  9995,2 53618  53.2175 341.5089 0001593  46.6067 222.3423 15.22403888  1308,6876.729,94.587,499.69,497.499,0.0
53618.0,STARLINK-4604,PAYLOAD,2022-10-30 00:00:00,15.22213296,0.0001539,53.2172,341.1267,41.1642,324.6655,-0.049756,-0.01060529,0.0,0 STARLINK-4604,1 53618U 22104AG  22303.00001157 -.01060529  00000-0 -49756-1 0  9993,2 53618  53.2172 341.1267 0001539  41.1642 324.6655 15.22213296  9862,6877.303000000001,94.599,500.227,498.11,0.0
53618.0,STARLINK-4604,PAYLOAD,2022-10-30 14:00:01,15.20888139,0.0001647,53.2169,338.459,39.8223,283.0111,-0.051972,-0.01064816,0.0,0 STARLINK-4604,1 53618U 22104AG  22303.58334491 -.01064816  00000-0 -51972-1 0  9992,2 53618  53.2169 338.4590 0001647  39.8223 283.0111 15.20888139  1303,6881.297,94.682,504.296,502.029,0.0
53618.0,STARLINK-4604,PAYLOAD,2022-10-30 22:00:01,15.20124552,0.000152,53.2174,336.93300000000005,42.7193,305.7877,-0.052888,-0.0105994,0.0,0 STARLINK-4604,1 53618U 22104AG  22303.91668981 -.01059940  00000-0 -52888-1 0  9992,2 53618  53.2174 336.9330 0001520  42.7193 305.7877 15.20124552  1306,6883.602,94.729,506.513,504.42,0.0
53618.0,STARLINK-4604,PAYLOAD,2022-10-31 14:00:01,15.1860747,0.0001648,53.217,333.8936,38.8325,358.0838,-0.0553899999999999,-0.01075254,0.0,0 STARLINK-4604,1 53618U 22104AG  22304.58334491 -.01075254  00000-0 -55390-1 0  9999,2 53618  53.2170 333.8936 0001648  38.8325 358.0838 15.18607470  1304,6888.185,94.824,511.185,508.915,0.0
53618.0,STARLINK-4604,PAYLOAD,2022-10-31 22:00:01,15.17846039,0.0001598,53.2174,332.3729,41.8268,18.0238,-0.056516,-0.010733,0.0,0 STARLINK-4604,1 53618U 22104AG  22304.91668981 -.01073300  00000-0 -56516-1 0  9991,2 53618  53.2174 332.3729 0001598  41.8268  18.0238 15.17846039 10151,6890.489000000001,94.871,513.455,511.253,0.0
53618.0,STARLINK-4604,PAYLOAD,2022-11-01 14:00:01,15.16329296,0.0001803,53.217,329.3442,38.8053,63.9785,-0.059173,-0.0107558,0.0,0 STARLINK-4604,1 53618U 22104AG  22305.58334491 -.01075580  00000-0 -59173-1 0  9995,2 53618  53.2170 329.3442 0001803  38.8053  63.9785 15.16329296  1305,6895.083000000001,94.966,518.191,515.705,0.0
53618.0,STARLINK-4604,PAYLOAD,2022-11-01 22:00:00,15.1556804,0.0001738,53.2174,327.829,42.7944,80.1224,-0.060384,-0.01074042,0.0,0 STARLINK-4604,1 53618U 22104AG  22305.91667824 -.01074042  00000-0 -60384-1 0  9999,2 53618  53.2174 327.8290 0001738  42.7944  80.1224 15.15568040 10303,6897.392,95.014,520.455,518.058,0.0
53618.0,STARLINK-4604,PAYLOAD,2022-11-02 14:00:01,15.14049287,0.0001853,53.2172,324.8102,42.2804,118.1582,-0.06301,-0.01073437,0.0,0 STARLINK-4604,1 53618U 22104AG  22306.58334491 -.01073437  00000-0 -63010-1 0  9990,2 53618  53.2172 324.8102 0001853  42.2804 118.1582 15.14049287  1303,6902.003000000002,95.109,525.1469999999998,522.589,0.0
53618.0,STARLINK-4604,PAYLOAD,2022-11-02 22:00:00,15.13290075,0.0001720999999999,53.2174,323.3009,47.7912,130.0411,-0.064465,-0.0107478,0.0,0 STARLINK-4604,1 53618U 22104AG  22306.91667824 -.01074780  00000-0 -64465-1 0  9993,2 53618  53.2174 323.3009 0001721  47.7912 130.0411 15.13290075 10451,6904.312,95.157,527.365,524.988,0.0
53618.0,STARLINK-4604,PAYLOAD,2022-11-03 14:00:01,15.1176677,0.0001776999999999,53.2167,320.2934,42.9931,166.8865,-0.066807,-0.01067734,0.0,0 STARLINK-4604,1 53618U 22104AG  22307.58334491 -.01067734  00000-0 -66807-1 0  9991,2 53618  53.2167 320.2934 0001777  42.9931 166.8865 15.11766770  1307,6908.949000000001,95.253,532.0419999999998,529.586,0.0
53618.0,STARLINK-4604,PAYLOAD,2022-11-03 22:00:00,15.11011274,0.0001723,53.2173,318.7887,47.5087,177.0254,-0.0686809999999999,-0.01074255,0.0,0 STARLINK-4604,1 53618U 22104AG  22307.91667824 -.01074255  00000-0 -68681-1 0  9995,2 53618  53.2173 318.7887 0001723  47.5087 177.0254 15.11011274 10608,6911.252,95.3,534.307,531.9259999999998,0.0
53618.0,STARLINK-4604,PAYLOAD,2022-11-04 00:00:00,15.1082017,0.0001587,53.2176,318.4134,45.444,272.6114,-0.068869,-0.01071659,0.0,0 STARLINK-4604,1 53618U 22104AG  22308.00001157 -.01071659  00000-0 -68869-1 0  9990,2 53618  53.2176 318.4134 0001587  45.4440 272.6114 15.10820170  1307,6911.834,95.312,534.7959999999998,532.6030000000002,0.0
53618.0,STARLINK-4604,PAYLOAD,2022-11-04 14:00:01,15.09368942,0.0001961,53.2173,315.791,39.5831,211.5378,-0.039866,-0.00600068,0.0,0 STARLINK-4604,1 53618U 22104AG  22308.58334491 -.00600068  00000-0 -39866-1 0  9999,2 53618  53.2173 315.7910 0001961  39.5831 211.5378 15.09368942 10711,6916.264,95.404,539.485,536.773,0.0
53618.0,STARLINK-4604,PAYLOAD,2022-11-05 00:00:00,15.08775924,0.0001654,53.2157,313.92,45.5544,310.2848,0.024158,0.00406277,0.0,0 STARLINK-4604,1 53618U 22104AG  22309.00001157  .00406277  00000-0  24158-1 0  9999,2 53618  53.2157 313.9200 0001654  45.5544 310.2848 15.08775924  1307,6918.076,95.442,541.086,538.797,0.0
53618.0,STARLINK-4604,PAYLOAD,2022-11-05 06:00:00,15.08858512,0.0001906,53.2125,312.8021,43.7781,230.7191,0.0016854,0.00026651,0.0,0 STARLINK-4604,1 53618U 22104AG  22309.25001157  .00026651  00000-0  16854-2 0  9995,2 53618  53.2125 312.8021 0001906  43.7781 230.7191 15.08858512 10812,6917.824000000001,95.436,541.007,538.37,0.0
53618.0,STARLINK-4604,PAYLOAD,2022-11-05 14:00:01,15.08893159,0.0001933,53.2128,311.3053,40.6108,245.5741,9.6142e-05,1.244e-05,0.0,0 STARLINK-4604,1 53618U 22104AG  22309.58335648  .00001244  00000-0  96142-4 0  9997,2 53618  53.2128 311.3053 0001933  40.6108 245.5741 15.08893159  1308,6917.718000000003,95.434,540.92,538.246,0.0
53618.0,STARLINK-4604,PAYLOAD,2022-11-05 22:00:01,15.08904147,0.0001859,53.2135,309.807,48.5457,249.2989,-0.0013466,-0.00021693,0.0,0 STARLINK-4604,1 53618U 22104AG  22309.91668981 -.00021693  00000-0 -13466-2 0  9991,2 53618  53.2135 309.8070 0001859  48.5457 249.2989 15.08904147  1303,6917.684,95.433,540.835,538.263,0.0
53618.0,STARLINK-4604,PAYLOAD,2022-11-06 06:00:00,15.08871744,0.0002134,53.214,308.3119,47.9796,261.4714,-0.0044779,-0.00070917,0.0,0 STARLINK-4604,1 53618U 22104AG  22310.25001157 -.00070917  00000-0 -44779-2 0  9990,2 53618  53.2140 308.3119 0002134  47.9796 261.4714 15.08871744 10963,6917.783,95.436,541.125,538.172,0.0
